GLOBALSTAR M080         
1 38041U 11080B   24126.66691236 -.00000085  00000+0  10563-3 0  9991
2 38041  52.0048 210.5778 0000708 170.4075 358.2952 12.62272073571320
GLOBALSTAR M082         
1 38042U 11080C   24126.83917525 -.00000070  00000+0  19094-3 0  9995
2 38042  52.0053 165.4575 0000581  36.2822 135.2034 12.62269183572051
GLOBALSTAR M090         
1 38044U 11080E   24126.86558762 -.00000064  00000+0  22285-3 0  9993
2 38044  51.9861 159.7089 0000376  61.0968 111.3683 12.62262884572172
GLOBALSTAR M086         
1 38045U 11080F   24126.81282130 -.00000069  00000+0  19523-3 0  9998
2 38045  51.9873 160.3891 0001098 133.4825  39.1022 12.62270497572110
GLOBALSTAR M093         
1 39073U 13005B   24126.22069620 -.00000101  00000+0  12697-4 0  9994
2 39073  51.9817  70.2780 0000882  68.6273 291.4687 12.62263739519248
